NORAD_CAT_ID,OBJECT_NAME,OBJECT_TYPE,EPOCH,MEAN_MOTION,ECCENTRICITY,INCLINATION,RA_OF_ASC_NODE,ARG_OF_PERICENTER,MEAN_ANOMALY,BSTAR,MEAN_MOTION_DOT,MEAN_MOTION_DDOT,TLE_LINE0,TLE_LINE1,TLE_LINE2,SEMIMAJOR_AXIS,PERIOD,APOGEE,PERIGEE,DECAYED
52574.0,STARLINK-3901,PAYLOAD,2022-09-20 09:14:08,15.08842927,0.0001815,53.2185,43.7836,57.0958,303.0208,1.6678e-05,-2.3e-07,0.0,0 STARLINK-3901,1 52574U 22051AQ  22263.38482229 -.00000023  00000-0  16678-4 0  9994,2 52574  53.2185  43.7836 0001815  57.0958 303.0208 15.08842927 20418,6917.871,95.437,540.992,538.481,0.0
52574.0,STARLINK-3901,PAYLOAD,2022-09-21 12:15:42,15.08837105,0.0001226,53.2197,38.7288,58.6346,301.4766,0.00010156,1.329e-05,0.0,0 STARLINK-3901,1 52574U 22051AQ  22264.51090457  .00001329  00000-0  10156-3 0  9991,2 52574  53.2197  38.7288 0001226  58.6346 301.4766 15.08837105 20659,6917.889,95.438,540.602,538.906,0.0
52574.0,STARLINK-3901,PAYLOAD,2022-09-21 18:37:15,15.08829741,0.0001467,53.2191,37.5399,54.7075,305.4055,2.2137e-05,6.4e-07,0.0,0 STARLINK-3901,1 52574U 22051AQ  22264.77587236  .00000064  00000-0  22137-4 0  9993,2 52574  53.2191  37.5399 0001467  54.7075 305.4055 15.08829741 20692,6917.9119999999975,95.438,540.7919999999998,538.762,0.0
52574.0,STARLINK-3901,PAYLOAD,2022-09-21 20:12:38,15.08830426,0.000146,53.2191,37.2425,53.8894,306.2233,2.4507e-05,1.02e-06,0.0,0 STARLINK-3901,1 52574U 22051AQ  22264.84211206  .00000102  00000-0  24507-4 0  9998,2 52574  53.2191  37.2425 0001460  53.8894 306.2233 15.08830426 20634,6917.91,95.438,540.785,538.765,0.0
52574.0,STARLINK-3901,PAYLOAD,2022-09-22 13:41:52,15.08839645,0.000148,53.219,33.9716,52.7903,307.3224,7.9068e-05,9.71e-06,0.0,0 STARLINK-3901,1 52574U 22051AQ  22265.57074753  .00000971  00000-0  79068-4 0  9999,2 52574  53.2190  33.9716 0001480  52.7903 307.3224 15.08839645 20746,6917.880999999999,95.438,540.77,538.7230000000002,0.0
52574.0,STARLINK-3901,PAYLOAD,2022-09-22 15:17:15,15.08840871,0.0001474,53.2191,33.6743,53.1205,306.9922,9.0061e-05,1.146e-05,0.0,0 STARLINK-3901,1 52574U 22051AQ  22265.63698658  .00001146  00000-0  90061-4 0  9993,2 52574  53.2191  33.6743 0001474  53.1205 306.9922 15.08840871 20751,6917.878000000002,95.437,540.762,538.7230000000002,0.0
52574.0,STARLINK-3901,PAYLOAD,2022-09-23 13:32:39,15.08842746,0.0001516,53.2191,29.5116,52.7383,307.3748,0.00020777,3.02e-05,0.0,0 STARLINK-3901,1 52574U 22051AQ  22266.56434220  .00003020  00000-0  20777-3 0  9998,2 52574  53.2191  29.5116 0001516  52.7383 307.3748 15.08842746 20897,6917.871999999999,95.437,540.786,538.688,0.0
52574.0,STARLINK-3901,PAYLOAD,2022-09-23 18:18:49,15.08833048,0.0001453999999999,53.219,28.6194,54.9737,305.1392,0.0001211999999999,1.641e-05,0.0,0 STARLINK-3901,1 52574U 22051AQ  22266.76307143  .00001641  00000-0  12120-3 0  9993,2 52574  53.2190  28.6194 0001454  54.9737 305.1392 15.08833048 20997,6917.901999999999,95.438,540.773,538.761,0.0
52574.0,STARLINK-3901,PAYLOAD,2022-09-24 13:23:27,15.08836774,0.0001695,53.2205,25.0531,59.0402,301.0756,3.0896e-05,2.04e-06,0.0,0 STARLINK-3901,1 52574U 22051AQ  22267.55795576  .00000204  00000-0  30896-4 0  9997,2 52574  53.2205  25.0531 0001695  59.0402 301.0756 15.08836774 21047,6917.89,95.438,540.928,538.5830000000002,0.0
52574.0,STARLINK-3901,PAYLOAD,2022-09-24 14:58:50,15.08836099,0.0001679,53.2204,24.7569,56.6029,303.5123,6.2282e-05,7.03e-06,0.0,0 STARLINK-3901,1 52574U 22051AQ  22267.62419582  .00000703  00000-0  62282-4 0  9993,2 52574  53.2204  24.7569 0001679  56.6029 303.5123 15.08836099 21059,6917.892,95.438,540.919,538.596,0.0
52574.0,STARLINK-3901,PAYLOAD,2022-09-25 00:31:08,15.08849606,0.000168,53.2193,22.9702,53.6988,306.4159,0.00011224,1.499e-05,0.0,0 STARLINK-3901,1 52574U 22051AQ  22268.02162540  .00001499  00000-0  11224-3 0  9999,2 52574  53.2193  22.9702 0001680  53.6988 306.4159 15.08849606 21181,6917.851,95.437,540.878,538.554,0.0
52574.0,STARLINK-3901,PAYLOAD,2022-09-25 11:38:50,15.08851266,0.0001726,53.2185,20.888,50.9467,309.1678,0.00011559,1.553e-05,0.0,0 STARLINK-3901,1 52574U 22051AQ  22268.48530256  .00001553  00000-0  11559-3 0  9994,2 52574  53.2185  20.8880 0001726  50.9467 309.1678 15.08851266 21180,6917.846,95.437,540.905,538.5169999999998,0.0
52574.0,STARLINK-3901,PAYLOAD,2022-09-25 18:00:22,15.08848754,0.0001718,53.2189,19.6983,50.4595,309.6549,0.00017919,2.566e-05,0.0,0 STARLINK-3901,1 52574U 22051AQ  22268.75026429  .00002566  00000-0  17919-3 0  9997,2 52574  53.2189  19.6983 0001718  50.4595 309.6549 15.08848754 21227,6917.854,95.437,540.9069999999998,538.53,0.0
52574.0,STARLINK-3901,PAYLOAD,2022-09-26 19:26:34,15.08825561,0.0001745,53.2191,14.9404,50.5622,309.5524,-0.00022251,-3.826e-05,0.0,0 STARLINK-3901,1 52574U 22051AQ  22269.81011603 -.00003826  00000-0 -22251-3 0  9990,2 52574  53.2191  14.9404 0001745  50.5622 309.5524 15.08825561 21388,6917.925,95.438,540.997,538.582,0.0
52574.0,STARLINK-3901,PAYLOAD,2022-09-27 11:20:25,15.08841273,0.0001438,53.2184,11.9677,50.6137,309.4982,0.00019057,2.746e-05,0.0,0 STARLINK-3901,1 52574U 22051AQ  22270.47251353  .00002746  00000-0  19057-3 0  9990,2 52574  53.2184  11.9677 0001438  50.6137 309.4982 15.08841273 21554,6917.876,95.437,540.736,538.747,0.0
52574.0,STARLINK-3901,PAYLOAD,2022-09-27 12:55:48,15.08845403,0.0001608,53.2182,11.6698,52.3485,307.7653,0.00017927,2.567e-05,0.0,0 STARLINK-3901,1 52574U 22051AQ  22270.53875208  .00002567  00000-0  17927-3 0  9993,2 52574  53.2182  11.6698 0001608  52.3485 307.7653 15.08845403 21494,6917.864000000001,95.437,540.841,538.616,0.0
52574.0,STARLINK-3901,PAYLOAD,2022-09-27 17:41:57,15.08853768,0.0001505,53.2186,10.778,71.3317,288.7839,0.00037011,5.609e-05,0.0,0 STARLINK-3901,1 52574U 22051AQ  22270.73746993  .00005609  00000-0  37011-3 0  9999,2 52574  53.2186  10.7780 0001505  71.3317 288.7839 15.08853768 21599,6917.8380000000025,95.437,540.744,538.6619999999998,0.0
52574.0,STARLINK-3901,PAYLOAD,2022-09-28 12:46:34,15.08860728,0.0001747,53.2184,7.2105,58.5469,301.5694,0.00052748,8.121e-05,0.0,0 STARLINK-3901,1 52574U 22051AQ  22271.53234529  .00008121  00000-0  52748-3 0  9991,2 52574  53.2184   7.2105 0001747  58.5469 301.5694 15.08860728 21645,6917.816999999999,95.436,540.891,538.4730000000002,0.0
52574.0,STARLINK-3901,PAYLOAD,2022-09-28 17:32:43,15.08863696,0.0001735,53.2181,6.3185,43.3675,316.7453,0.00047046,7.212e-05,0.0,0 STARLINK-3901,1 52574U 22051AQ  22271.73106151  .00007212  00000-0  47046-3 0  9997,2 52574  53.2181   6.3185 0001735  43.3675 316.7453 15.08863696 21679,6917.808000000001,95.436,540.873,538.4730000000002,0.0
52574.0,STARLINK-3901,PAYLOAD,2022-09-29 12:37:22,15.08820908,0.0001801,53.2182,2.7503,35.6549,324.4563,-0.00043425,-7.189e-05,0.0,0 STARLINK-3901,1 52574U 22051AQ  22272.52595522 -.00007189  00000-0 -43425-3 0  9991,2 52574  53.2182   2.7503 0001801  35.6549 324.4563 15.08820908 21792,6917.939,95.439,541.05,538.558,0.0
52574.0,STARLINK-3901,PAYLOAD,2022-09-29 17:23:32,15.08818583,0.0001855,53.2185,1.8584,48.8665,311.2487,-0.00038019,-6.330000000000001e-05,0.0,0 STARLINK-3901,1 52574U 22051AQ  22272.72468088 -.00006330  00000-0 -38019-3 0  9999,2 52574  53.2185   1.8584 0001855  48.8665 311.2487 15.08818583 21827,6917.946,95.439,541.094,538.528,0.0
52574.0,STARLINK-3901,PAYLOAD,2022-09-30 12:28:10,15.08833341,0.0001891,53.2185,358.29,49.5163,310.5994,0.0002207,3.225e-05,0.0,0 STARLINK-3901,1 52574U 22051AQ  22273.51956808  .00003225  00000-0  22070-3 0  9997,2 52574  53.2185 358.2900 0001891  49.5163 310.5994 15.08833341 21946,6917.901,95.438,541.0740000000002,538.4580000000002,0.0
52574.0,STARLINK-3901,PAYLOAD,2022-09-30 15:38:56,15.08838281,0.0001906,53.2183,357.695,49.0525,311.0632,0.0003421,5.16e-05,0.0,0 STARLINK-3901,1 52574U 22051AQ  22273.65204806  .00005160  00000-0  34210-3 0  9995,2 52574  53.2183 357.6950 0001906  49.0525 311.0632 15.08838281 22030,6917.886,95.438,541.069,538.432,0.0
52574.0,STARLINK-3901,PAYLOAD,2022-09-30 17:14:20,15.08838684,0.0001962,53.2183,357.3976,49.3629,310.7534,0.00058865,9.092e-05,0.0,0 STARLINK-3901,1 52574U 22051AQ  22273.71829012  .00009092  00000-0  58865-3 0  9994,2 52574  53.2183 357.3976 0001962  49.3629 310.7534 15.08838684 21971,6917.884,95.438,541.107,538.3919999999998,0.0
52574.0,STARLINK-3901,PAYLOAD,2022-10-01 12:18:57,15.08874504,0.0002025,53.2183,353.8295,51.0366,309.0806,0.0010929,0.00017165,0.0,0 STARLINK-3901,1 52574U 22051AQ  22274.51316064  .00017165  00000-0  10929-2 0  9999,2 52574  53.2183 353.8295 0002025  51.0366 309.0806 15.08874504 22161,6917.775,95.435,541.0409999999998,538.239,0.0
52574.0,STARLINK-3901,PAYLOAD,2022-10-01 21:51:15,15.08869543,0.0002109999999999,53.2183,352.045,49.8212,310.2965,0.00065408,0.00010145,0.0,0 STARLINK-3901,1 52574U 22051AQ  22274.91059728  .00010145  00000-0  65408-3 0  9998,2 52574  53.2183 352.0450 0002110  49.8212 310.2965 15.08869543 22229,6917.79,95.436,541.115,538.195,0.0
52574.0,STARLINK-3901,PAYLOAD,2022-10-02 10:34:20,15.08845226,0.0001778,53.2183,349.6663,42.909,317.2041,4.931300000000001e-07,-2.8e-06,0.0,0 STARLINK-3901,1 52574U 22051AQ  22275.44051695 -.00000280  00000-0  49313-6 0  9992,2 52574  53.2183 349.6663 0001778  42.9090 317.2041 15.08845226 22307,6917.864000000001,95.437,540.9590000000002,538.499,0.0
52574.0,STARLINK-3901,PAYLOAD,2022-10-02 16:55:53,15.08847382,0.0001742,53.2181,348.4769,45.301,314.8124,0.00055317,8.528e-05,0.0,0 STARLINK-3901,1 52574U 22051AQ  22275.70547811  .00008528  00000-0  55317-3 0  9991,2 52574  53.2181 348.4769 0001742  45.3010 314.8124 15.08847382 22275,6917.858,95.437,540.928,538.518,0.0
52574.0,STARLINK-3901,PAYLOAD,2022-10-03 12:00:30,15.08857802,0.0001764,53.218,344.9088,43.5527,316.5604,0.00074136,0.00011536,0.0,0 STARLINK-3901,1 52574U 22051AQ  22276.50035403  .00011536  00000-0  74136-3 0  9992,2 52574  53.2180 344.9088 0001764  43.5527 316.5604 15.08857802 22399,6917.826,95.436,540.911,538.471,0.0
